STARLINK-32257          
1 62171U 24225J   25357.21611007  .00003791  00000+0  32525-3 0  9991
2 62171  70.0028 357.1305 0002835 265.2922  94.7913 14.98339659 58425
STARLINK-32407          
1 62172U 24225K   25357.83334491  .00067867  00000+0  56448-2 0  9992
2 62172  70.0019 355.6665 0003231 270.5399  87.8862 14.98301887  5796
STARLINK-32575          
1 62173U 24225L   25357.40984778  .00002758  00000+0  23879-3 0  9996
2 62173  70.0023 346.5922 0002896 277.4424  82.6406 14.98337275 58704
STARLINK-32552          
1 62174U 24225M   25357.22028743  .00003864  00000+0  33144-3 0  9993
2 62174  70.0025 357.1446 0002998 271.6549  88.4266 14.98335549 58422
STARLINK-32534          
1 62175U 24225N   25357.39972075  .00004655  00000+0  39765-3 0  9992
2 62175  70.0031 356.9623 0003052 263.2817  96.7994 14.98334119 58445
STARLINK-32516          
1 62176U 24225P   25357.39137410  .00005328  00000+0  45397-3 0  9995
2 62176  70.0020 356.9327 0003264 273.4977  86.5809 14.98332960 58444
STARLINK-32542          
1 62177U 24225Q   25357.83334491  .00067449  00000+0  56098-2 0  9994
2 62177  70.0020 355.7439 0003251 276.5616  14.2444 14.98306248  5801
STARLINK-32600          
1 62178U 24225R   25357.19289893  .00003623  00000+0  31122-3 0  9995
2 62178  70.0023 347.4379 0003100 273.0598  87.0206 14.98335174 58666
STARLINK-32584          
1 62179U 24225S   25357.30373561  .00003720  00000+0  31930-3 0  9990
2 62179  70.0032 356.9660 0002975 265.2120  94.8700 14.98339355 58433
STARLINK-32587          
1 62180U 24225T   25357.22445440  .00002820  00000+0  24397-3 0  9998
2 62180  70.0018 357.0677 0003111 273.5293  86.5510 14.98335008 58422
STARLINK-32602          
1 62181U 24225U   25357.71030414  .00006278  00000+0  53338-3 0  9992
2 62181  70.0021 346.0393 0002794 268.1655  91.9184 14.98339837 58744
STARLINK-32565          
1 62182U 24225V   25357.40806264  .00000801  00000+0  74880-4 0  9995
2 62182  70.0031 356.5982 0002199 271.1749  88.9159 14.98331034 58450
STARLINK-32589          
1 62183U 24225W   25357.40791767 -.00002189  00000+0 -17586-3 0  9999
2 62183  70.0035 356.9932 0002631 273.8071  86.2787 14.98309519 58442
STARLINK-32581          
1 62184U 24225X   25357.69358712  .00004674  00000+0  39918-3 0  9992
2 62184  70.0035 345.9743 0002587 278.6820  81.4046 14.98337956 58740
STARLINK-32686          
1 62192U 24229A   25356.66646036  .00012681  00000+0  46932-3 0  9991
2 62192  43.0051 342.0778 0000820  14.4007 345.6868 15.27596036 58829
STARLINK-32688          
1 62193U 24229B   25357.01089886  .00019455  00000+0  71454-3 0  9999
2 62193  43.0004 343.8212 0001073 271.9828  88.0901 15.27584786 58838
STARLINK-32684          
1 62194U 24229C   25356.98518376  .00025718  00000+0  93929-3 0  9996
2 62194  42.9909 343.6257 0001905 140.6196 219.4795 15.27632942 60014
STARLINK-32672          
1 62195U 24229D   25357.65320220  .00024187  00000+0  88542-3 0  9995
2 62195  43.0013 340.0396 0000824 263.1071  96.9687 15.27585285 58933
STARLINK-32682          
1 62196U 24229E   25357.77140807  .00030158  00000+0  11005-2 0  9994
2 62196  43.0023 306.7884 0001383 255.1596 104.9103 15.27593329 59325
STARLINK-32663          
1 62197U 24229F   25357.03274010  .00024207  00000+0  88574-3 0  9992
2 62197  43.0030 343.9756 0002743 164.5190 195.5746 15.27598624 58836
STARLINK-32640          
1 62198U 24229G   25356.66469487  .00038241  00000+0  13907-2 0  9995
2 62198  42.9990 345.5257 0000886  44.9105 315.1819 15.27609845 58780
STARLINK-32653          
1 62199U 24229H   25357.01314169  .00005891  00000+0  22344-3 0  9993
2 62199  43.0024 336.8672 0001415 247.7904 112.2797 15.27575357 58910
STARLINK-32647          
1 62200U 24229J   25357.01348297  .00033049  00000+0  12042-2 0  9994
2 62200  43.0020 343.8349 0000542 291.6571  68.4223 15.27605783 58830
STARLINK-32667          
1 62201U 24229K   25357.23903724  .00023913  00000+0  87508-3 0  9990
2 62201  42.9916 342.0850 0002360 126.8354 233.2714 15.27602011 58871
STARLINK-32655          
1 62202U 24229L   25356.95964716  .00032479  00000+0  11853-2 0  9993
2 62202  43.0032 344.2924 0001157 281.3299  78.7423 15.27559678 58821
STARLINK-32665          
1 62203U 24229M   25356.68010161  .00033809  00000+0  12315-2 0  9992
2 62203  43.0051 345.6321 0000651 290.2971  69.7810 15.27606362 58781
STARLINK-32664          
1 62204U 24229N   25357.14809827  .00025842  00000+0  94504-3 0  9999
2 62204  43.0029 343.1250 0001298 267.1878  92.8825 15.27589692 58855
STARLINK-32660          
1 62205U 24229P   25357.17815076  .00033658  00000+0  12267-2 0  9995
2 62205  43.0034 328.6207 0000959 245.1951 114.8801 15.27588557 59021
STARLINK-32448          
1 62206U 24229Q   25357.24288245  .00028065  00000+0  10244-2 0  9995
2 62206  43.0000 342.1195 0001249 285.5722  74.4991 15.27617159 58873
STARLINK-32430          
1 62207U 24229R   25357.01909851  .00030457  00000+0  11118-2 0  9993
2 62207  43.0028 340.4251 0001152 246.1227 113.9504 15.27577618 58878
STARLINK-32675          
1 62208U 24229S   25357.00318893  .00015360  00000+0  56660-3 0  9991
2 62208  42.9994 343.7578 0000412 283.3982  76.6824 15.27576386 58833
STARLINK-32671          
1 62209U 24229T   25357.23531214  .00036283  00000+0  13180-2 0  9997
2 62209  42.9921 342.9078 0005128 108.7617 251.3791 15.27657509 58869
STARLINK-32670          
1 62210U 24229U   25356.99547892  .00016794  00000+0  61837-3 0  9998
2 62210  42.9933 343.7033 0000548 357.4089   2.6759 15.27581554 58835
STARLINK-32642          
1 62211U 24229V   25357.05443511  .00032442  00000+0  11822-2 0  9996
2 62211  42.9992 343.2858 0001800 278.5322  81.5325 15.27610264 58843
STARLINK-32668          
1 62212U 24229W   25357.67682685  .00026537  00000+0  97062-3 0  9991
2 62212  42.9992 336.7629 0001132  73.4602 286.6374 15.27572095 58973
STARLINK-32669          
1 62213U 24229X   25356.37501786  .00036611  00000+0  13317-2 0  9994
2 62213  43.0025 347.6410 0000568 240.6824 119.3971 15.27620240 58733
STARLINK-32666          
1 62214U 24229Y   25357.68918094  .00023001  00000+0  84275-3 0  9995
2 62214  43.0019 340.3029 0001592 256.2859 103.7816 15.27579730 58936
STARLINK-32662          
1 62215U 24229Z   25357.67505436  .00021429  00000+0  78625-3 0  9991
2 62215  43.0007 340.1984 0000757  47.6723 312.4192 15.27568250 58937
STARLINK-11394 [DTC]    
1 62218U 24231A   25357.81047664  .00225496  00000+0  18034-2 0  9994
2 62218  53.1565 115.3392 0000762 205.3320 154.7661 15.69877008 61491
STARLINK-11490 [DTC]    
1 62219U 24231B   25357.05135732  .00151414  00000+0  12310-2 0  9994
2 62219  53.1569 119.1374 0001419 102.4247 257.6930 15.69727949 61370
STARLINK-11466 [DTC]    
1 62220U 24231C   25357.63419152  .00270867  00000+0  21620-2 0  9999
2 62220  53.1582 116.3767 0002212 281.8980  78.1790 15.69781439 61464
STARLINK-11468 [DTC]    
1 62221U 24231D   25357.83501106  .00189952  00000+0  15348-2 0  9997
2 62221  53.1579 115.4993 0002020  30.6223 329.4912 15.69746303 61491
STARLINK-11488 [DTC]    
1 62222U 24231E   25357.82029331  .00252648  00000+0  20264-2 0  9998
2 62222  53.1565 115.4009 0001075  58.2322 301.8800 15.69720966 61497
STARLINK-11483 [DTC]    
1 62223U 24231F   25357.72228688  .00311259  00000+0  24674-2 0  9997
2 62223  53.1573 115.4876 0000914  48.5973 311.5123 15.69821105 61486
STARLINK-11492 [DTC]    
1 62224U 24231G   25357.06607758  .00174575  00000+0  14144-2 0  9993
2 62224  53.1581 119.2444 0001239  81.5839 278.5319 15.69732816 61375
STARLINK-11471 [DTC]    
1 62225U 24231H   25357.66352284  .00305770  00000+0  24122-2 0  9991
2 62225  53.1581 115.8469 0000493 209.0460 151.0531 15.69954589 61478
STARLINK-11475 [DTC]    
1 62226U 24231J   25357.79576668  .00200959  00000+0  16234-2 0  9998
2 62226  53.1582 115.2394 0001205  63.0402 297.0739 15.69715482 61497
STARLINK-11469 [DTC]    
1 62227U 24231K   25357.80550419  .00366031  00000+0  28392-2 0  9999
2 62227  53.1576 115.3000 0000322 136.8534 223.2510 15.70175952 61492
STARLINK-11476 [DTC]    
1 62228U 24231L   25356.76233694  .00194148  00000+0  15680-2 0  9991
2 62228  53.1573 120.1605 0001154  74.0584 286.0561 15.69743461 61348
STARLINK-11485 [DTC]    
1 62229U 24231M   25357.80066889  .00344620  00000+0  26993-2 0  9999
2 62229  53.1577 115.2686 0000689 256.1946 103.8995 15.70007545 61495
STARLINK-11481 [DTC]    
1 62230U 24231N   25356.82119309  .00171320  00000+0  13880-2 0  9994
2 62230  53.1580 120.5485 0002608 162.9710 197.1396 15.69741339 61331
STARLINK-32650          
1 62231U 24231P   25357.58371610  .00021814  00000+0  74659-3 0  9998
2 62231  53.1598 213.3184 0001015 104.2085 255.9028 15.30195141 60115
STARLINK-32636          
1 62232U 24231Q   25356.89046605  .00026849  00000+0  91507-3 0  9999
2 62232  53.1587 216.1075 0001298  91.5613 268.5536 15.30209496 60014
STARLINK-32643          
1 62233U 24231R   25357.82753655  .00019193  00000+0  65840-3 0  9999
2 62233  53.1592 199.2135 0000828  75.4491 284.6601 15.30202522 60321
STARLINK-32652          
1 62234U 24231S   25357.63215979  .00034838  00000+0  11829-2 0  9991
2 62234  53.1571 212.9090 0001954 110.1560 249.9651 15.30198743 60112
STARLINK-32631          
1 62235U 24231T   25357.55150242  .00023108  00000+0  78963-3 0  9995
2 62235  53.1581 200.3389 0001305  88.7921 271.3229 15.30210870 60281
STARLINK-32641          
1 62236U 24231U   25357.83069920  .00013761  00000+0  47576-3 0  9999
2 62236  53.1583 199.2303 0001415  86.3180 273.7983 15.30207364 60321
STARLINK-32632          
1 62262U 24231V   25357.05380932  .00038399  00000+0  13027-2 0  9998
2 62262  53.1572 215.6975 0001417 100.8330 259.2830 15.30179789 60034
STARLINK-11496 [DTC]    
1 62267U 24237A   25357.80424645  .00183138  00000+0  13954-2 0  9993
2 62267  43.0026 154.3678 0003174 268.7092  91.3412 15.70907840 61113
